OBJECT_NAME,OBJECT_ID,EPOCH,MEAN_MOTION,ECCENTRICITY,INCLINATION,RA_OF_ASC_NODE,ARG_OF_PERICENTER,MEAN_ANOMALY,EPHEMERIS_TYPE,CLASSIFICATION_TYPE,NORAD_CAT_ID,ELEMENT_SET_NO,REV_AT_EPOCH,BSTAR,MEAN_MOTION_DOT,MEAN_MOTION_DDOT
STARLINK-5136,2023-061AS,2026-07-11T09:35:59.163648,15.27570327,.00011003,42.9998,208.4510,275.0293,85.0433,0,U,56414,999,17579,.26886915E-4,.478E-5,0
STARLINK-6260,2023-061AU,2026-07-11T12:17:54.674304,15.27589368,.0001372,43.0006,200.5393,281.6012,78.4686,0,U,56416,999,17589,.4414E-4,.953E-5,0
STARLINK-6261,2023-061AV,2026-07-11T10:49:47.114400,15.27590671,.00024729,43.0049,207.9840,282.4009,77.6565,0,U,56417,999,17580,.18178423E-4,.238E-5,0
STARLINK-5356,2023-061AW,2026-07-11T09:57:29.623680,15.27589032,.00014126,43.0027,200.6638,282.0486,78.0207,0,U,56418,999,17588,.32583013E-4,.635E-5,0
STARLINK-5350,2023-061AX,2026-07-11T09:41:31.823520,15.27593701,.00006762,42.9982,208.4818,232.9405,127.1385,0,U,56419,999,17579,.93568736E-4,.2315E-4,0
STARLINK-6272,2023-061AY,2026-07-11T08:34:26.334336,15.27571048,.00014276,43.0017,201.0899,246.6204,113.4497,0,U,56420,999,17587,.26016643E-4,.454E-5,0
STARLINK-6270,2023-061AZ,2026-07-11T10:31:56.534592,15.27591385,.0001494,43.0029,204.2554,275.0177,85.0504,0,U,56421,999,17584,.30759538E-4,.585E-5,0
STARLINK-6236,2023-061BA,2026-07-11T08:49:14.749248,15.27575971,.00013974,43.0007,201.1687,273.7870,86.2822,0,U,56422,999,17587,-.31368012E-4,-.1125E-4,0
STARLINK-6239,2023-061BB,2026-07-11T00:49:13.336032,15.27585778,.00027245,43.0066,202.9732,293.8705,66.1861,0,U,56423,999,17582,-.14683816E-3,-.4302E-4,0
STARLINK-6242,2023-061BC,2026-07-11T12:08:39.561216,15.27590247,.0001281,43.0012,200.4887,275.6816,84.3890,0,U,56424,999,17589,.46406E-4,.1015E-4,0
STARLINK-6224,2023-061BD,2026-07-11T01:04:01.644672,15.27551248,.00015501,43.0015,203.0434,236.9407,123.1296,0,U,56425,999,17582,.28661532E-3,.7626E-4,0
STARLINK-5352,2023-061BE,2026-07-11T09:16:59.938176,15.27576239,.00012871,43.0006,201.2985,277.1302,82.9403,0,U,56426,999,17587,-.27496767E-4,-.1019E-4,0
STARLINK-5724,2023-061BF,2026-07-11T10:54:53.404992,15.27558230,.00011996,43.0008,200.9508,281.1685,78.9032,0,U,56427,999,17588,-.63661625E-4,-.2012E-4,0
STARLINK-6238,2023-061BG,2026-07-11T10:40:03.089280,15.27584114,.00012528,43.0011,200.8815,270.0165,90.0543,0,U,56428,999,17588,-.17256299E-4,-.737E-5,0
STARLINK-6264,2023-061BH,2026-07-11T12:19:45.585984,15.27572760,.0001229,43.0001,200.5385,268.1090,91.9621,0,U,56429,999,17589,-.13154E-4,-.624E-5,0
STARLINK-5990,2023-064A,2026-07-11T12:35:58.836192,14.98359937,.0003788,69.9991,192.2901,261.1876,98.8854,0,U,56448,999,17379,.26616E-3,.3087E-4,0
STARLINK-5993,2023-064B,2026-07-11T00:16:47.718624,14.98315986,.00029816,70.0001,193.7084,270.8487,89.2330,0,U,56449,999,17371,-.10730462E-3,-.1373E-4,0
STARLINK-5970,2023-064C,2026-07-10T23:40:55.809120,14.98333548,.00030588,69.9991,193.6224,268.9007,91.1802,0,U,56450,999,17371,-.17955144E-4,-.307E-5,0
STARLINK-5985,2023-064D,2026-07-11T09:47:35.794752,14.98307825,.00033488,69.9990,192.6842,266.7712,93.3064,0,U,56451,999,17377,-.20624107E-3,-.2552E-4,0
STARLINK-5986,2023-064E,2026-07-11T09:41:32.731584,14.98330458,.00034693,69.9980,192.6694,268.6918,91.3844,0,U,56452,999,17377,-.14504538E-4,-.266E-5,0
STARLINK-5935,2023-064F,2026-07-11T09:35:32.168832,14.98331482,.00036128,70.0002,192.6545,263.2373,96.8375,0,U,56453,999,17377,-.397002E-5,-.14E-5,0
STARLINK-5959,2023-064G,2026-07-10T23:28:40.944288,14.98323336,.00032419,69.9992,193.5919,270.6879,89.3909,0,U,56454,999,17371,.181157E-5,-.71E-6,0
STARLINK-5987,2023-064H,2026-07-10T10:33:36.509760,14.98327656,.00036563,69.9992,194.9229,266.0036,94.0705,0,U,56455,999,17363,.2981178E-4,.263E-5,0
STARLINK-5995,2023-064J,2026-07-09T17:14:09.813696,14.98320241,.00044575,69.9966,196.8157,270.8683,89.1965,0,U,56456,999,17352,-.75700176E-4,-.996E-5,0
STARLINK-5994,2023-064K,2026-07-11T10:47:39.111936,14.98327266,.00032186,69.9991,192.4255,269.5096,90.5694,0,U,56457,999,17378,.6645854E-4,.7E-5,0
STARLINK-6050,2023-064L,2026-07-10T23:46:42.672288,14.98339188,.00040364,69.9990,193.6343,258.9040,101.1665,0,U,56458,999,17371,.98316611E-4,.108E-4,0
STARLINK-6048,2023-064M,2026-07-11T10:11:47.889312,14.98330730,.00036588,69.9986,192.3409,264.7703,95.3039,0,U,56459,999,17377,.20739707E-4,.154E-5,0
STARLINK-6047,2023-064N,2026-07-11T10:29:36.792960,14.98334537,.00037189,69.9987,192.3831,262.2655,97.8082,0,U,56460,999,17378,.65794998E-4,.692E-5,0
STARLINK-6037,2023-064P,2026-07-10T10:03:30.138912,14.98357109,.0003607,69.9978,194.8508,265.7827,94.2920,0,U,56461,999,17363,.37107247E-3,.434E-4,0
STARLINK-6045,2023-064Q,2026-07-11T07:22:53.623776,14.98326912,.00032364,69.9992,152.5639,262.0338,98.0453,0,U,56462,999,17475,-.11444626E-3,-.1458E-4,0
STARLINK-6051,2023-064R,2026-07-11T09:29:32.520192,14.98330393,.00035042,69.9994,192.6321,268.9037,91.1720,0,U,56463,999,17377,.47978813E-4,.479E-5,0
STARLINK-6043,2023-064S,2026-07-09T00:42:46.154304,14.98327985,.00037973,69.9984,198.4293,272.2063,87.8661,0,U,56464,999,17342,-.24995296E-4,-.391E-5,0
STARLINK-6054,2023-064T,2026-07-09T15:31:19.962912,14.98327930,.00033275,70.0002,156.7986,261.9277,98.1505,0,U,56465,999,17450,.19240982E-4,.137E-5,0
STARLINK-6053,2023-064U,2026-07-10T00:32:45.135168,14.98332082,.00037786,69.9984,195.8750,267.4767,92.5959,0,U,56466,999,17356,.54552493E-4,.558E-5,0
STARLINK-6055,2023-064V,2026-07-10T21:52:12.897696,14.98346583,.00029709,69.9989,173.8918,272.0354,88.0465,0,U,56467,999,17419,.23280505E-3,.2687E-4,0
STARLINK-5998,2023-064W,2026-07-11T09:59:32.264160,14.98331003,.00037989,69.9989,192.3089,264.4772,95.5954,0,U,56468,999,17378,.23342925E-4,.185E-5,0
STARLINK-5518,2023-064X,2026-07-11T09:23:12.888960,14.98329195,.00035781,69.9995,172.7570,266.8426,93.2323,0,U,56469,999,17426,.56946218E-4,.586E-5,0
STARLINK-5523,2023-064Y,2026-07-10T09:09:09.199872,14.98334735,.00033485,69.9987,175.2522,270.1466,89.9309,0,U,56470,999,17411,.33963273E-4,.312E-5,0
STARLINK-5521,2023-064Z,2026-07-10T08:57:09.383328,14.98328304,.00030052,69.9989,175.2224,269.0995,90.9820,0,U,56471,999,17411,.41056602E-4,.397E-5,0
STARLINK-5038,2023-064AA,2026-07-11T08:47:07.559808,14.98330749,.0003561,69.9996,172.6702,265.3745,94.7008,0,U,56472,999,17426,.19214617E-4,.136E-5,0
STARLINK-5524,2023-064AC,2026-07-11T09:17:11.316192,14.98332080,.00034942,69.9993,172.7421,264.6858,95.3902,0,U,56474,999,17426,.34888553E-4,.323E-5,0
STARLINK-5541,2023-064AD,2026-07-11T08:41:07.064448,14.98330329,.00033883,69.9979,172.6522,267.5630,92.5142,0,U,56475,999,17426,-.5075126E-5,-.154E-5,0
STARLINK-5545,2023-064AE,2026-07-11T08:53:08.243520,14.98330450,.00032269,69.9995,172.6826,266.8502,93.2287,0,U,56476,999,17426,.15210104E-4,.88E-6,0
STARLINK-5534,2023-064AF,2026-07-11T08:17:17.096064,14.98341190,.00036343,69.9998,172.5956,264.4886,95.5858,0,U,56477,999,17426,.93984601E-4,.1029E-4,0
STARLINK-6041,2023-064AG,2026-07-11T08:35:06.153504,14.98330382,.00036786,69.9997,172.6395,267.3835,92.6903,0,U,56478,999,17426,-.8885931E-5,-.199E-5,0
STARLINK-6044,2023-064AH,2026-07-09T15:55:42.506688,14.98325459,.00033898,70.0007,176.7584,269.4930,90.5841,0,U,56479,999,17401,.57214421E-4,.59E-5,0
STARLINK-6214,2023-064AJ,2026-07-11T20:02:45.123072,15.37228961,.0004246,69.9909,123.4951,262.0778,97.9919,0,U,56480,999,17553,.22473E-3,.8089E-4,0
STARLINK-6222,2023-064AK,2026-07-11T08:11:03.117984,14.98334202,.00034329,69.9996,172.5798,267.8190,92.2576,0,U,56481,999,17426,.4818904E-5,-.36E-6,0
STARLINK-6220,2023-064AL,2026-07-11T08:29:05.646048,14.98330294,.00030937,70.0001,172.6244,271.3973,88.6832,0,U,56482,999,17426,-.40000679E-4,-.57E-5,0
STARLINK-5868,2023-064AM,2026-07-11T08:23:05.022816,14.98330440,.00035998,69.9997,172.6059,265.3611,94.7137,0,U,56483,999,17426,.1500403E-4,.86E-6,0
STARLINK-6221,2023-064AN,2026-07-11T08:17:03.469056,14.98337387,.00036266,69.9997,172.5943,264.6563,95.4182,0,U,56484,999,17425,.70709495E-4,.751E-5,0
STARLINK-6210,2023-064AP,2026-07-11T09:29:10.330944,14.98326307,.00033554,69.9997,172.3664,268.6792,91.3983,0,U,56485,999,17427,.25515714E-4,.211E-5,0
STARLINK-6196,2023-064AR,2026-07-10T07:26:40.847136,14.98327813,.00029684,69.9993,155.1370,270.3190,89.7629,0,U,56487,999,17460,.83887352E-4,.908E-5,0
STARLINK-6204,2023-064AS,2026-07-11T21:17:52.438272,14.98330235,.000315,69.9998,151.4079,268.1376,91.9423,0,U,56488,999,17483,.53986E-4,.551E-5,0
STARLINK-5923,2023-064AT,2026-07-11T08:10:45.729984,14.98335288,.00031081,70.0007,152.7097,273.0141,87.0662,0,U,56489,999,17475,.38664242E-4,.368E-5,0
STARLINK-5873,2023-064AU,2026-07-11T07:04:39.755712,14.98329309,.00035635,69.9997,152.9508,263.8198,96.2555,0,U,56490,999,17474,.98877E-7,-.92E-6,0
STARLINK-5842,2023-064AV,2026-07-11T20:53:49.949664,14.98329668,.0003139,70.0000,151.3487,268.7528,91.3271,0,U,56491,999,17483,.56104E-4,.576E-5,0
STARLINK-5846,2023-064AW,2026-07-11T20:47:47.848992,14.98332601,.0003288,70.0001,151.3341,265.6274,94.4509,0,U,56492,999,17483,.46098E-4,.457E-5,0
STARLINK-5841,2023-064AX,2026-07-11T20:29:26.717280,14.98330975,.0002982,70.0002,131.4081,268.8661,91.2156,0,U,56493,999,17532,.18218E-4,.124E-5,0
STARLINK-5530,2023-064AY,2026-07-11T07:58:57.421056,14.98333411,.00034574,69.9998,152.6811,264.2321,95.8444,0,U,56494,999,17474,.56483962E-4,.581E-5,0
STARLINK-5529,2023-064AZ,2026-07-09T15:43:20.746272,14.98355732,.00032548,69.9990,156.8586,271.5402,88.5384,0,U,56495,999,17450,-.29786779E-3,-.3648E-4,0
STARLINK-5526,2023-064BA,2026-07-10T07:38:39.257952,14.98338182,.00043445,69.9976,155.1611,264.0076,96.0588,0,U,56496,999,17460,.96367193E-4,.1057E-4,0
STARLINK-5527,2023-064BB,2026-07-11T00:00:02.000160,14.98359563,.00038218,70.0009,153.4189,261.6261,195.0229,0,U,56497,999,532,-.35203562E-2,-.41882E-3,0
STARLINK-5522,2023-064BC,2026-07-09T07:48:41.621472,14.98322016,.00032267,70.0006,157.7152,268.6900,91.3889,0,U,56498,999,17445,.36375711E-4,.341E-5,0
